COSMOS 2242             
1 22626U 93024A   26071.97900757  .00002137  00000+0  18521-3 0  9998
2 22626  82.5155 263.5694 0015006 296.8632  63.1056 14.96563844780881
SL-16 R/B               
1 22803U 93059B   26071.51189748 -.00000055  00000+0 -33432-5 0  9991
2 22803  70.9929   5.1749 0018365 212.4075 147.5922 14.17231383679930
ARIANE 40 R/B           
1 22830U 93061H   26071.77111388  .00000235  00000+0  10186-3 0  9994
2 22830  98.4910 140.5978 0009574 274.8814  85.1277 14.32862842694549
COSMOS 2278             
1 23087U 94023A   26071.70954885 -.00000011  00000+0  18980-4 0  9992
2 23087  71.0552 168.7804 0008293   7.5290 352.5956 14.14379509645239
SL-16 R/B               
1 23088U 94023B   26071.96673404 -.00000207  00000+0 -82170-4 0  9996
2 23088  70.9985  64.0041 0005679 282.5687  77.4800 14.15010758646555
SL-16 R/B               
1 23343U 94074B   26071.71335812  .00000598  00000+0  86804-4 0  9996
2 23343  97.7106 102.4086 0006035 199.4350 283.4668 14.79412069687699
SL-16 R/B               
1 23405U 94077B   26071.16978169  .00000105  00000+0  78284-4 0  9992
2 23405  70.9853 347.2721 0002954 208.8129 151.2831 14.15561637616580
ARIANE 40+ R/B          
1 23561U 95021B   26071.74535764  .00000337  00000+0  12127-3 0  9999
2 23561  98.4492 143.1865 0007761 128.3405 343.1943 14.39774980619686
SL-16 R/B               
1 23705U 95058B   26071.74224013  .00000316  00000+0  18601-3 0  9991
2 23705  71.0225 173.8469 0010649 120.1829 240.0350 14.15497449568288
SL-16 R/B               
1 24298U 96051B   26071.71556530  .00000088  00000+0  74448-4 0  9990
2 24298  70.7604 168.8345 0014828 143.3945 216.8191 14.12416562522074
ORBVIEW 2 (SEASTAR)     
1 24883U 97037A   26071.41507765  .00000369  00000+0  14441-3 0  9996
2 24883  98.8572 235.7991 0003027  66.4464 293.7039 14.35497264508869
SL-16 R/B               
1 25400U 98043G   26071.81878428  .00000087  00000+0  55455-4 0  9999
2 25400  98.8257  25.2043 0010062  11.7495 348.3918 14.26050651439433
